{
  "type": "FeatureCollection",
  "features": [
    {
      "type": "Feature",
      "properties": {
        "norad_id": 33376,
        "name": "GALAXY 19 (G-19)",
        "group": "intelsat",
        "lat": -0.03159844651944794,
        "lon": -132.72118617504054,
        "alt_km": 35778.43672487211,
        "timestamp": "2025-12-18T15:47:10.888011+00:00",
        "meta_object_name": "GALAXY 19 (G-19)",
        "meta_object_id": "2008-045A",
        "meta_epoch": "2025-12-17T23:08:16.678752",
        "meta_mean_motion": 1.00271057,
        "meta_eccentricity": 0.00025032,
        "meta_inclination": 0.0205,
        "meta_ra_of_asc_node": 284.9643,
        "meta_arg_of_pericenter": 344.4363,
        "meta_mean_anomaly": 67.5013,
        "meta_ephemeris_type": 0,
        "meta_classification_type": "U",
        "meta_norad_cat_id": 33376,
        "meta_element_set_no": 999,
        "meta_rev_at_epoch": 6308,
        "meta_bstar": 0,
        "meta_mean_motion_dot": -1.14e-06,
        "meta_mean_motion_ddot": 0,
        "tle_line1": "1 33376U 08045A   25351.96408193 -.00000114  00000+0  00000+0 0  9990",
        "tle_line2": "2 33376   0.0205 284.9643 0002503 344.4363  67.5013  1.00271057 63086"
      },
      "geometry": {
        "type": "Point",
        "coordinates": [
          -132.72118617504054,
          -0.03159844651944794
        ]
      }
    },
    {
      "type": "Feature",
      "properties": {
        "norad_id": 35493,
        "name": "FM-5",
        "group": "intelsat",
        "lat": -0.03416279356908569,
        "lon": -121.8383083188756,
        "alt_km": 35786.63650969764,
        "timestamp": "2025-12-18T15:47:10.888036+00:00",
        "meta_object_name": "FM-5",
        "meta_object_id": "2009-034A",
        "meta_epoch": "2025-12-18T06:01:22.018656",
        "meta_mean_motion": 1.00270493,
        "meta_eccentricity": 7.56e-05,
        "meta_inclination": 0.0177,
        "meta_ra_of_asc_node": 297.5529,
        "meta_arg_of_pericenter": 207.9656,
        "meta_mean_anomaly": 305.7935,
        "meta_ephemeris_type": 0,
        "meta_classification_type": "U",
        "meta_norad_cat_id": 35493,
        "meta_element_set_no": 999,
        "meta_rev_at_epoch": 4483,
        "meta_bstar": 0,
        "meta_mean_motion_dot": -1.75e-06,
        "meta_mean_motion_ddot": 0,
        "tle_line1": "1 35493U 09034A   25352.25094929 -.00000175  00000+0  00000+0 0  9999",
        "tle_line2": "2 35493   0.0177 297.5529 0000756 207.9656 305.7935  1.00270493 44830"
      },
      "geometry": {
        "type": "Point",
        "coordinates": [
          -121.8383083188756,
          -0.03416279356908569
        ]
      }
    },
    {
      "type": "Feature",
      "properties": {
        "norad_id": 36097,
        "name": "INTELSAT 14 (IS-14)",
        "group": "intelsat",
        "lat": -0.0299923231969788,
        "lon": -80.68534958328598,
        "alt_km": 35775.80039069234,
        "timestamp": "2025-12-18T15:47:10.888049+00:00",
        "meta_object_name": "INTELSAT 14 (IS-14)",
        "meta_object_id": "2009-064A",
        "meta_epoch": "2025-12-18T02:48:33.538176",
        "meta_mean_motion": 1.00271907,
        "meta_eccentricity": 0.00024367,
        "meta_inclination": 0.0111,
        "meta_ra_of_asc_node": 327.0074,
        "meta_arg_of_pericenter": 310.0171,
        "meta_mean_anomaly": 167.1119,
        "meta_ephemeris_type": 0,
        "meta_classification_type": "U",
        "meta_norad_cat_id": 36097,
        "meta_element_set_no": 999,
        "meta_rev_at_epoch": 5879,
        "meta_bstar": 0,
        "meta_mean_motion_dot": -2.48e-06,
        "meta_mean_motion_ddot": 0,
        "tle_line1": "1 36097U 09064A   25352.11705484 -.00000248  00000+0  00000+0 0  9994",
        "tle_line2": "2 36097   0.0111 327.0074 0002436 310.0171 167.1119  1.00271907 58793"
      },
      "geometry": {
        "type": "Point",
        "coordinates": [
          -80.68534958328598,
          -0.0299923231969788
        ]
      }
    },
    {
      "type": "Feature",
      "properties": {
        "norad_id": 36106,
        "name": "INTELSAT 15 (IS-15)",
        "group": "intelsat",
        "lat": 0.03937279161134576,
        "lon": 49.47425130842236,
        "alt_km": 35792.17966195621,
        "timestamp": "2025-12-18T15:47:10.888067+00:00",
        "meta_object_name": "INTELSAT 15 (IS-15)",
        "meta_object_id": "2009-067A",
        "meta_epoch": "2025-12-18T00:00:11.704608",
        "meta_mean_motion": 1.00271538,
        "meta_eccentricity": 0.00021581,
        "meta_inclination": 0.0174,
        "meta_ra_of_asc_node": 347.0041,
        "meta_arg_of_pericenter": 291.6161,
        "meta_mean_anomaly": 253.4528,
        "meta_ephemeris_type": 0,
        "meta_classification_type": "U",
        "meta_norad_cat_id": 36106,
        "meta_element_set_no": 999,
        "meta_rev_at_epoch": 3941,
        "meta_bstar": 0,
        "meta_mean_motion_dot": -1.6e-06,
        "meta_mean_motion_ddot": 0,
        "tle_line1": "1 36106U 09067A   25352.00013547 -.00000160  00000+0  00000+0 0  9991",
        "tle_line2": "2 36106   0.0174 347.0041 0002158 291.6161 253.4528  1.00271538 39414"
      },
      "geometry": {
        "type": "Point",
        "coordinates": [
          49.47425130842236,
          0.03937279161134576
        ]
      }
    },
    {
      "type": "Feature",
      "properties": {
        "norad_id": 36131,
        "name": "DIRECTV 12",
        "group": "intelsat",
        "lat": -0.005367265704421341,
        "lon": -138.42151149957957,
        "alt_km": 35788.90080008688,
        "timestamp": "2025-12-18T15:47:10.888079+00:00",
        "meta_object_name": "DIRECTV 12",
        "meta_object_id": "2009-075A",
        "meta_epoch": "2025-12-18T05:58:46.249824",
        "meta_mean_motion": 1.00269422,
        "meta_eccentricity": 6.523e-05,
        "meta_inclination": 0.0447,
        "meta_ra_of_asc_node": 145.6516,
        "meta_arg_of_pericenter": 217.5866,
        "meta_mean_anomaly": 70.8544,
        "meta_ephemeris_type": 0,
        "meta_classification_type": "U",
        "meta_norad_cat_id": 36131,
        "meta_element_set_no": 999,
        "meta_rev_at_epoch": 4473,
        "meta_bstar": 0,
        "meta_mean_motion_dot": -7.8e-07,
        "meta_mean_motion_ddot": 0,
        "tle_line1": "1 36131U 09075A   25352.24914641 -.00000078  00000+0  00000+0 0  9997",
        "tle_line2": "2 36131   0.0447 145.6516 0000652 217.5866  70.8544  1.00269422 44739"
      },
      "geometry": {
        "type": "Point",
        "coordinates": [
          -138.42151149957957,
          -0.005367265704421341
        ]
      }
    },
    {
      "type": "Feature",
      "properties": {
        "norad_id": 36397,
        "name": "INTELSAT 16 (IS-16)",
        "group": "intelsat",
        "lat": -0.03306103232735805,
        "lon": -111.89837900264078,
        "alt_km": 35778.582065034265,
        "timestamp": "2025-12-18T15:47:10.888091+00:00",
        "meta_object_name": "INTELSAT 16 (IS-16)",
        "meta_object_id": "2010-006A",
        "meta_epoch": "2025-12-18T06:13:15.155616",
        "meta_mean_motion": 1.00272496,
        "meta_eccentricity": 0.00018382,
        "meta_inclination": 0.0087,
        "meta_ra_of_asc_node": 4.2963,
        "meta_arg_of_pericenter": 263.3624,
        "meta_mean_anomaly": 196.5855,
        "meta_ephemeris_type": 0,
        "meta_classification_type": "U",
        "meta_norad_cat_id": 36397,
        "meta_element_set_no": 999,
        "meta_rev_at_epoch": 5784,
        "meta_bstar": 0,
        "meta_mean_motion_dot": -2.2e-06,
        "meta_mean_motion_ddot": 0,
        "tle_line1": "1 36397U 10006A   25352.25920319 -.00000220  00000+0  00000+0 0  9996",
        "tle_line2": "2 36397   0.0087   4.2963 0001838 263.3624 196.5855  1.00272496 57849"
      },
      "geometry": {
        "type": "Point",
        "coordinates": [
          -111.89837900264078,
          -0.03306103232735805
        ]
      }
    },
    {
      "type": "Feature",
      "properties": {
        "norad_id": 37185,
        "name": "XM-5",
        "group": "intelsat",
        "lat": -0.06789116959945536,
        "lon": -150.877264556242,
        "alt_km": 35783.40866159341,
        "timestamp": "2025-12-18T15:47:10.888104+00:00",
        "meta_object_name": "XM-5",
        "meta_object_id": "2010-053A",
        "meta_epoch": "2025-12-18T05:51:57.087072",
        "meta_mean_motion": 1.00270796,
        "meta_eccentricity": 0.00017945,
        "meta_inclination": 0.0621,
        "meta_ra_of_asc_node": 272.5607,
        "meta_arg_of_pericenter": 229.7994,
        "meta_mean_anomaly": 277.5419,
        "meta_ephemeris_type": 0,
        "meta_classification_type": "U",
        "meta_norad_cat_id": 37185,
        "meta_element_set_no": 999,
        "meta_rev_at_epoch": 5566,
        "meta_bstar": 0,
        "meta_mean_motion_dot": 2e-08,
        "meta_mean_motion_ddot": 0,
        "tle_line1": "1 37185U 10053A   25352.24441073  .00000002  00000+0  00000+0 0  9995",
        "tle_line2": "2 37185   0.0621 272.5607 0001794 229.7994 277.5419  1.00270796 55666"
      },
      "geometry": {
        "type": "Point",
        "coordinates": [
          -150.877264556242,
          -0.06789116959945536
        ]
      }
    }
  ]
}